NORAD_CAT_ID,OBJECT_NAME,OBJECT_TYPE,EPOCH,MEAN_MOTION,ECCENTRICITY,INCLINATION,RA_OF_ASC_NODE,ARG_OF_PERICENTER,MEAN_ANOMALY,BSTAR,MEAN_MOTION_DOT,MEAN_MOTION_DDOT,TLE_LINE0,TLE_LINE1,TLE_LINE2,SEMIMAJOR_AXIS,PERIOD,APOGEE,PERIGEE,DECAYED
52298.0,STARLINK-3760,PAYLOAD,2023-07-26 18:17:06,15.08850563,0.000109,53.2177,74.9485,84.5258,275.5859,0.0001078,1.429e-05,0.0,0 STARLINK-3760,1 52298U 22041AP  23207.76188458  .00001429  00000-0  10780-3 0  9991,2 52298  53.2177  74.9485 0001090  84.5258 275.5859 15.08850563 71259,6917.848,95.437,540.467,538.959,0.0
52298.0,STARLINK-3760,PAYLOAD,2023-07-26 21:27:53,15.088509,0.0001038,53.217,74.3532,94.9562,265.1548,0.00015335,2.154e-05,0.0,0 STARLINK-3760,1 52298U 22041AP  23207.89436349  .00002154  00000-0  15335-3 0  9997,2 52298  53.2170  74.3532 0001038  94.9562 265.1548 15.08850900 70067,6917.847,95.437,540.43,538.994,0.0
52298.0,STARLINK-3760,PAYLOAD,2023-07-27 00:38:38,15.08872967,0.0001146,53.2165,73.7585,79.031,281.0811,-0.00014758,-2.638e-05,0.0,0 STARLINK-3760,1 52298U 22041AP  23208.02683112 -.00002638  00000-0 -14758-3 0  9992,2 52298  53.2165  73.7585 0001146  79.0310 281.0811 15.08872967 71290,6917.78,95.435,540.437,538.852,0.0
52298.0,STARLINK-3760,PAYLOAD,2023-07-27 10:10:58,15.08842887,0.0001853,53.2149,71.9781,48.6585,311.4567,-0.00014377,-2.576e-05,0.0,0 STARLINK-3760,1 52298U 22041AP  23208.42429001 -.00002576  00000-0 -14377-3 0  9999,2 52298  53.2149  71.9781 0001853  48.6585 311.4567 15.08842887 71352,6917.872,95.437,541.018,538.455,0.0
52298.0,STARLINK-3760,PAYLOAD,2023-07-27 21:18:41,15.08824289,0.0001149,53.2168,69.8935,73.9243,286.1876,-0.00011422,-2.104e-05,0.0,0 STARLINK-3760,1 52298U 22041AP  23208.88798008 -.00002104  00000-0 -11422-3 0  9990,2 52298  53.2168  69.8935 0001149  73.9243 286.1876 15.08824289 70211,6917.928,95.439,540.588,538.999,0.0
52298.0,STARLINK-3760,PAYLOAD,2023-07-28 10:01:46,15.08837679,0.0001107,53.2169,67.5151,69.9889,290.1223,6.7612e-05,7.88e-06,0.0,0 STARLINK-3760,1 52298U 22041AP  23209.41789587  .00000788  00000-0  67612-4 0  9999,2 52298  53.2169  67.5151 0001107  69.9889 290.1223 15.08837679 71503,6917.887,95.438,540.518,538.987,0.0
52298.0,STARLINK-3760,PAYLOAD,2023-07-28 21:09:27,15.08851022,0.0001159,53.2169,65.4335,69.239,290.8726,0.00019465,2.812e-05,0.0,0 STARLINK-3760,1 52298U 22041AP  23209.88156997  .00002812  00000-0  19465-3 0  9995,2 52298  53.2169  65.4335 0001159  69.2390 290.8726 15.08851022 71571,6917.847,95.437,540.513,538.91,0.0
52298.0,STARLINK-3760,PAYLOAD,2023-07-29 19:24:51,15.08848308,0.0001205,53.2169,61.27,63.2928,296.8187,0.00034639,5.23e-05,0.0,0 STARLINK-3760,1 52298U 22041AP  23210.80893312  .00005230  00000-0  34639-3 0  9995,2 52298  53.2169  61.2700 0001205  63.2928 296.8187 15.08848308 71710,6917.855,95.437,540.554,538.886,0.0
52298.0,STARLINK-3760,PAYLOAD,2023-07-30 09:43:19,15.08844587,0.0001058,53.2168,58.5941,60.4076,299.7022,1.5221e-05,-4.6e-07,0.0,0 STARLINK-3760,1 52298U 22041AP  23211.40509095 -.00000046  00000-0  15221-4 0  9992,2 52298  53.2168  58.5941 0001058  60.4076 299.7022 15.08844587 71809,6917.866,95.437,540.463,538.999,0.0
52298.0,STARLINK-3760,PAYLOAD,2023-07-31 17:31:03,15.08835195,0.0001021,53.2171,52.6464,84.7559,275.3549,-9.4234e-05,-1.787e-05,0.0,0 STARLINK-3760,1 52298U 22041AP  23212.72989642 -.00001787  00000-0 -94234-4 0  9993,2 52298  53.2171  52.6464 0001021  84.7559 275.3549 15.08835195 72005,6917.895,95.438,540.466,539.054,0.0
52298.0,STARLINK-3760,PAYLOAD,2023-08-01 22:07:59,15.08848709,0.000101,53.2165,47.293,90.764,269.3467,0.00045413,6.949e-05,0.0,0 STARLINK-3760,1 52298U 22041AP  23213.92221661  .00006949  00000-0  45413-3 0  9993,2 52298  53.2165  47.2930 0001010  90.7640 269.3467 15.08848709 72188,6917.854,95.437,540.417,539.02,0.0
52298.0,STARLINK-3760,PAYLOAD,2023-08-02 06:04:55,15.08841188,9.92e-05,53.2169,45.8054,79.4674,280.643,0.00025584,3.786e-05,0.0,0 STARLINK-3760,1 52298U 22041AP  23214.25341955  .00003786  00000-0  25584-3 0  9992,2 52298  53.2169  45.8054 0000992  79.4674 280.6430 15.08841188 72238,6917.877,95.437,540.428,539.056,0.0
52298.0,STARLINK-3760,PAYLOAD,2023-08-03 18:38:47,15.08848832,9.77e-05,53.2165,38.9675,73.5396,286.5704,0.00028034,4.178e-05,0.0,0 STARLINK-3760,1 52298U 22041AP  23215.77693685  .00004178  00000-0  28034-3 0  9999,2 52298  53.2165  38.9675 0000977  73.5396 286.5704 15.08848832 72462,6917.853,95.437,540.394,539.043,0.0
52298.0,STARLINK-3760,PAYLOAD,2023-08-04 18:29:34,15.08840527,0.0001114,53.2172,34.5069,67.2433,292.8677,0.00011931,1.612e-05,0.0,0 STARLINK-3760,1 52298U 22041AP  23216.77054061  .00001612  00000-0  11931-3 0  9997,2 52298  53.2172  34.5069 0001114  67.2433 292.8677 15.08840527 72614,6917.879,95.438,540.514,538.973,0.0
52298.0,STARLINK-3760,PAYLOAD,2023-08-05 18:20:20,15.08858983,0.0001174,53.2174,30.0456,91.6672,268.4455,0.00033426,5.039e-05,0.0,0 STARLINK-3760,1 52298U 22041AP  23217.76413147  .00005039  00000-0  33426-3 0  9991,2 52298  53.2174  30.0456 0001174  91.6672 268.4455 15.08858983 72763,6917.822,95.436,540.5,538.875,0.0
52298.0,STARLINK-3760,PAYLOAD,2023-08-06 18:11:09,15.08821259,9.5e-05,53.2182,25.5848,97.255,262.8551,-0.00019882,-3.449e-05,0.0,0 STARLINK-3760,1 52298U 22041AP  23218.75775184 -.00003449  00000-0 -19882-3 0  9998,2 52298  53.2182  25.5848 0000950  97.2550 262.8551 15.08821259 72912,6917.938,95.439,540.46,539.145,0.0
52298.0,STARLINK-3760,PAYLOAD,2023-08-07 10:05:01,15.08830738,8.9e-05,53.2185,22.611,99.9421,260.1671,-0.00022852,-3.922e-05,0.0,0 STARLINK-3760,1 52298U 22041AP  23219.42015510 -.00003922  00000-0 -22852-3 0  9990,2 52298  53.2185  22.6110 0000890  99.9421 260.1671 15.08830738 73012,6917.909,95.438,540.389,539.158,0.0
52298.0,STARLINK-3760,PAYLOAD,2023-08-07 18:01:57,15.08839193,9.09e-05,53.2181,21.1257,111.7197,248.3892,0.00071677,0.00011138,0.0,0 STARLINK-3760,1 52298U 22041AP  23219.75135851  .00011138  00000-0  71677-3 0  9992,2 52298  53.2181  21.1257 0000909 111.7197 248.3892 15.08839193 73060,6917.883,95.438,540.377,539.119,0.0
52298.0,STARLINK-3760,PAYLOAD,2023-08-08 21:03:29,15.08878681,8.31e-05,53.2173,16.071,108.124,251.9843,0.0011015,0.00017304,0.0,0 STARLINK-3760,1 52298U 22041AP  23220.87742401  .00017304  00000-0  11015-2 0  9992,2 52298  53.2173  16.0710 0000831 108.1240 251.9843 15.08878681 73231,6917.762,95.435,540.202,539.052,0.0
52298.0,STARLINK-3760,PAYLOAD,2023-08-09 09:46:34,15.08860255,0.0001698,53.2171,13.6924,107.9732,252.1445,0.00034758,5.251e-05,0.0,0 STARLINK-3760,1 52298U 22041AP  23221.40734428  .00005251  00000-0  34758-3 0  9990,2 52298  53.2171  13.6924 0001698 107.9732 252.1445 15.08860255 73312,6917.818,95.436,540.858,538.509,0.0
52298.0,STARLINK-3760,PAYLOAD,2023-08-09 14:32:44,15.08847035,7.77e-05,53.2171,12.8007,72.6638,287.4439,7.0045e-05,8.27e-06,0.0,0 STARLINK-3760,1 52298U 22041AP  23221.60606618  .00000827  00000-0  70045-4 0  9995,2 52298  53.2171  12.8007 0000777  72.6638 287.4439 15.08847035 73343,6917.859,95.437,540.261,539.186,0.0
52298.0,STARLINK-3760,PAYLOAD,2023-08-10 09:37:22,15.0883741,9.5e-05,53.2159,9.2329,59.0277,301.0808,0.00026758,3.973e-05,0.0,0 STARLINK-3760,1 52298U 22041AP  23222.40095024  .00003973  00000-0  26758-3 0  9993,2 52298  53.2159   9.2329 0000950  59.0277 301.0808 15.08837410 73469,6917.888,95.438,540.411,539.096,0.0
52298.0,STARLINK-3760,PAYLOAD,2023-08-11 15:49:41,15.08848979,9.33e-05,53.2163,3.582,75.9491,284.1605,0.00029657,4.436e-05,0.0,0 STARLINK-3760,1 52298U 22041AP  23223.65950703  .00004436  00000-0  29657-3 0  9991,2 52298  53.2163   3.5820 0000933  75.9491 284.1605 15.08848979 73652,6917.853,95.437,540.363,539.073,0.0
52298.0,STARLINK-3760,PAYLOAD,2023-08-12 09:18:56,15.08844162,0.0001136,53.2166,0.3109,80.8855,279.2265,0.00013426,1.85e-05,0.0,0 STARLINK-3760,1 52298U 22041AP  23224.38814815  .00001850  00000-0  13426-3 0  9999,2 52298  53.2166   0.3109 0001136  80.8855 279.2265 15.08844162 73764,6917.868,95.437,540.519,538.947,0.0
52298.0,STARLINK-3760,PAYLOAD,2023-08-13 09:09:43,15.08841562,9.02e-05,53.2163,355.8526,68.6189,291.4899,9.9392e-05,1.295e-05,0.0,0 STARLINK-3760,1 52298U 22041AP  23225.38174878  .00001295  00000-0  99392-4 0  9998,2 52298  53.2163 355.8526 0000902  68.6189 291.4899 15.08841562 73913,6917.876,95.437,540.365,539.117,0.0
52298.0,STARLINK-3760,PAYLOAD,2023-08-14 09:00:30,15.08836755,9.26e-05,53.2174,351.3893,88.7883,271.3215,8.3427e-05,1.04e-05,0.0,0 STARLINK-3760,1 52298U 22041AP  23226.37535159  .00001040  00000-0  83427-4 0  9991,2 52298  53.2174 351.3893 0000926  88.7883 271.3215 15.08836755 74067,6917.89,95.438,540.396,539.115,0.0
52298.0,STARLINK-3760,PAYLOAD,2023-08-14 12:11:16,15.08843456,9.42e-05,53.2169,350.7947,100.4283,259.6815,0.00014795,2.068e-05,0.0,0 STARLINK-3760,1 52298U 22041AP  23226.50782739  .00002068  00000-0  14795-3 0  9996,2 52298  53.2169 350.7947 0000942 100.4283 259.6815 15.08843456 74081,6917.87,95.437,540.386,539.083,0.0
52298.0,STARLINK-3760,PAYLOAD,2023-08-15 16:48:12,15.08847971,9.83e-05,53.2181,345.4413,85.8852,274.2253,0.00018688,2.688e-05,0.0,0 STARLINK-3760,1 52298U 22041AP  23227.70014552  .00002688  00000-0  18688-3 0  9993,2 52298  53.2181 345.4413 0000983  85.8852 274.2253 15.08847971 74262,6917.856,95.437,540.401,539.041,0.0
52298.0,STARLINK-3760,PAYLOAD,2023-08-16 16:38:59,15.08847513,0.0001085,53.218,340.9811,85.7618,274.3498,0.0001314,1.804e-05,0.0,0 STARLINK-3760,1 52298U 22041AP  23228.69374677  .00001804  00000-0  13140-3 0  9996,2 52298  53.2180 340.9811 0001085  85.7618 274.3498 15.08847513 74417,6917.857,95.437,540.473,538.972,0.0
52298.0,STARLINK-3760,PAYLOAD,2023-08-17 10:08:14,15.08841218,0.0001507,53.2153,337.7115,124.2635,235.85,-1.3586e-05,-5.04e-06,0.0,0 STARLINK-3760,1 52298U 22041AP  23229.42238895 -.00000504  00000-0 -13586-4 0  9992,2 52298  53.2153 337.7115 0001507 124.2635 235.8500 15.08841218 74529,6917.877,95.437,540.784,538.699,0.0
